ONEWEB-0620             
1 55161U 23004X   25179.50268492  .00000369  00000+0  10054-2 0  9996
2 55161  87.8839  91.5932 0002137  66.5847 293.5505 13.11418068119475
ONEWEB-0621             
1 55162U 23004Y   25179.45352095  .00000198  00000+0  52305-3 0  9990
2 55162  87.8832  91.5604 0001694  77.1555 282.9762 13.11415005119448
ONEWEB-0622             
1 55163U 23004Z   25179.45859736 -.00000034  00000+0 -13126-3 0  9994
2 55163  87.8837  91.5822 0001839  52.4579 307.6715 13.11415996119430
ONEWEB-0623             
1 55164U 23004AA  25179.61120714 -.00000303  00000+0 -81314-3 0  9993
2 55164  87.9064  76.2852 0001350  59.6622 300.4643 13.17649400121027
ONEWEB-0624             
1 55165U 23004AB  25179.58456284  .00000394  00000+0  10513-2 0  9994
2 55165  87.8879  60.9814 0001802  78.1362 281.9969 13.12940888121672
ONEWEB-0625             
1 55166U 23004AC  25179.52515515  .00000033  00000+0  51053-4 0  9998
2 55166  87.9062  76.3001 0001922  83.6518 276.4832 13.17648017121003
ONEWEB-0626             
1 55167U 23004AD  25179.43909027 -.00000011  00000+0 -61068-4 0  9999
2 55167  87.9064  76.3153 0002444  74.5143 285.6258 13.17646857120998
ONEWEB-0627             
1 55168U 23004AE  25179.42728633  .00000020  00000+0  17700-4 0  9993
2 55168  87.9064  76.3208 0001616  61.8374 298.2920 13.17649446120998
